STARLINK-31100          
1 58714U 24002K   26068.67219712 -.00000334  00000+0  83672-6 0  9992
2 58714  53.1594 229.9438 0001045  90.8021 269.3100 15.30196314122011
HERMES-3                
1 63835U 25052BR  26068.93751242  .00020316  00000+0  69958-3 0  9995
2 63835  97.3987 324.6131 0007993 112.9583 247.2502 15.30039785 54863
